[{"OBJECT_NAME":"METOP-B","OBJECT_ID":"2012-049A","EPOCH":"2026-03-05T17:08:36.356352","MEAN_MOTION":14.21443239,"ECCENTRICITY":0.0001198,"INCLINATION":98.665,"RA_OF_ASC_NODE":118.2136,"ARG_OF_PERICENTER":287.7658,"MEAN_ANOMALY":72.3389,"EPHEMERIS_TYPE":0,"CLASSIFICATION_TYPE":"U","NORAD_CAT_ID":38771,"ELEMENT_SET_NO":999,"REV_AT_EPOCH":69856,"BSTAR":9.6564e-5,"MEAN_MOTION_DOT":1.68e-6,"MEAN_MOTION_DDOT":0},{"OBJECT_NAME":"SARAL","OBJECT_ID":"2013-009A","EPOCH":"2026-03-05T18:14:54.978720","MEAN_MOTION":14.32827019,"ECCENTRICITY":0.0001256,"INCLINATION":98.5552,"RA_OF_ASC_NODE":252.6256,"ARG_OF_PERICENTER":193.0304,"MEAN_ANOMALY":167.0848,"EPHEMERIS_TYPE":0,"CLASSIFICATION_TYPE":"U","NORAD_CAT_ID":39086,"ELEMENT_SET_NO":999,"REV_AT_EPOCH":68079,"BSTAR":8.411e-5,"MEAN_MOTION_DOT":1.86e-6,"MEAN_MOTION_DDOT":0},{"OBJECT_NAME":"METOP-C","OBJECT_ID":"2018-087A","EPOCH":"2026-03-05T17:43:55.510752","MEAN_MOTION":14.21495517,"ECCENTRICITY":0.0002182,"INCLINATION":98.6773,"RA_OF_ASC_NODE":126.1788,"ARG_OF_PERICENTER":105.401,"MEAN_ANOMALY":254.7409,"EPHEMERIS_TYPE":0,"CLASSIFICATION_TYPE":"U","NORAD_CAT_ID":43689,"ELEMENT_SET_NO":999,"REV_AT_EPOCH":38013,"BSTAR":9.209e-5,"MEAN_MOTION_DOT":1.58e-6,"MEAN_MOTION_DDOT":0},{"OBJECT_NAME":"OTB-3-GAZELLE","OBJECT_ID":"2022-127A","EPOCH":"2026-03-05T13:54:09.476640","MEAN_MOTION":14.42633327,"ECCENTRICITY":0.0013941,"INCLINATION":98.3905,"RA_OF_ASC_NODE":57.8873,"ARG_OF_PERICENTER":137.2889,"MEAN_ANOMALY":222.9387,"EPHEMERIS_TYPE":0,"CLASSIFICATION_TYPE":"U","NORAD_CAT_ID":54023,"ELEMENT_SET_NO":999,"REV_AT_EPOCH":17942,"BSTAR":4.8442e-5,"MEAN_MOTION_DOT":1.18e-6,"MEAN_MOTION_DDOT":0},{"OBJECT_NAME":"EOS-6 (OCEANSAT-3)","OBJECT_ID":"2022-158A","EPOCH":"2026-03-05T18:50:15.918144","MEAN_MOTION":14.47001627,"ECCENTRICITY":1.36e-5,"INCLINATION":98.3489,"RA_OF_ASC_NODE":164.3871,"ARG_OF_PERICENTER":48.147,"MEAN_ANOMALY":311.9734,"EPHEMERIS_TYPE":0,"CLASSIFICATION_TYPE":"U","NORAD_CAT_ID":54361,"ELEMENT_SET_NO":999,"REV_AT_EPOCH":17288,"BSTAR":0.0001614,"MEAN_MOTION_DOT":5.43e-6,"MEAN_MOTION_DDOT":0},{"OBJECT_NAME":"KINEIS-1B","OBJECT_ID":"2024-114A","EPOCH":"2026-03-05T17:09:51.882912","MEAN_MOTION":14.804054,"ECCENTRICITY":0.0003835,"INCLINATION":97.9926,"RA_OF_ASC_NODE":89.3649,"ARG_OF_PERICENTER":81.1868,"MEAN_ANOMALY":278.9778,"EPHEMERIS_TYPE":0,"CLASSIFICATION_TYPE":"U","NORAD_CAT_ID":60079,"ELEMENT_SET_NO":999,"REV_AT_EPOCH":9209,"BSTAR":0.00024,"MEAN_MOTION_DOT":1.78e-5,"MEAN_MOTION_DDOT":0},{"OBJECT_NAME":"KINEIS-1C","OBJECT_ID":"2024-114C","EPOCH":"2026-03-05T17:58:24.186720","MEAN_MOTION":14.8039665,"ECCENTRICITY":0.000209,"INCLINATION":97.9948,"RA_OF_ASC_NODE":89.223,"ARG_OF_PERICENTER":122.282,"MEAN_ANOMALY":237.8594,"EPHEMERIS_TYPE":0,"CLASSIFICATION_TYPE":"U","NORAD_CAT_ID":60081,"ELEMENT_SET_NO":999,"REV_AT_EPOCH":9207,"BSTAR":0.0002193,"MEAN_MOTION_DOT":1.622e-5,"MEAN_MOTION_DDOT":0},{"OBJECT_NAME":"KINEIS-1D","OBJECT_ID":"2024-114D","EPOCH":"2026-03-05T17:48:44.353728","MEAN_MOTION":14.76105548,"ECCENTRICITY":0.000229,"INCLINATION":97.9971,"RA_OF_ASC_NODE":85.9771,"ARG_OF_PERICENTER":130.3463,"MEAN_ANOMALY":229.7946,"EPHEMERIS_TYPE":0,"CLASSIFICATION_TYPE":"U","NORAD_CAT_ID":60082,"ELEMENT_SET_NO":999,"REV_AT_EPOCH":9186,"BSTAR":0.0001742,"MEAN_MOTION_DOT":1.151e-5,"MEAN_MOTION_DDOT":0},{"OBJECT_NAME":"KINEIS-1E","OBJECT_ID":"2024-114E","EPOCH":"2026-03-05T18:22:48.355680","MEAN_MOTION":14.80414957,"ECCENTRICITY":0.0002487,"INCLINATION":97.9932,"RA_OF_ASC_NODE":89.3214,"ARG_OF_PERICENTER":91.5752,"MEAN_ANOMALY":268.5745,"EPHEMERIS_TYPE":0,"CLASSIFICATION_TYPE":"U","NORAD_CAT_ID":60083,"ELEMENT_SET_NO":999,"REV_AT_EPOCH":9208,"BSTAR":0.0002214,"MEAN_MOTION_DOT":1.639e-5,"MEAN_MOTION_DDOT":0},{"OBJECT_NAME":"KINEIS-1A","OBJECT_ID":"2024-114F","EPOCH":"2026-03-05T19:11:30.263712","MEAN_MOTION":14.80429343,"ECCENTRICITY":0.0004792,"INCLINATION":97.9939,"RA_OF_ASC_NODE":89.4775,"ARG_OF_PERICENTER":101.2021,"MEAN_ANOMALY":258.973,"EPHEMERIS_TYPE":0,"CLASSIFICATION_TYPE":"U","NORAD_CAT_ID":60084,"ELEMENT_SET_NO":999,"REV_AT_EPOCH":9209,"BSTAR":0.00018694,"MEAN_MOTION_DOT":1.376e-5,"MEAN_MOTION_DDOT":0},{"OBJECT_NAME":"KINEIS-3C","OBJECT_ID":"2024-172A","EPOCH":"2026-03-05T16:52:37.115040","MEAN_MOTION":14.72293444,"ECCENTRICITY":0.0003517,"INCLINATION":98.03,"RA_OF_ASC_NODE":155.7531,"ARG_OF_PERICENTER":108.3787,"MEAN_ANOMALY":251.7803,"EPHEMERIS_TYPE":0,"CLASSIFICATION_TYPE":"U","NORAD_CAT_ID":61220,"ELEMENT_SET_NO":999,"REV_AT_EPOCH":7784,"BSTAR":0.00054682,"MEAN_MOTION_DOT":3.407e-5,"MEAN_MOTION_DDOT":0},{"OBJECT_NAME":"KINEIS-3D","OBJECT_ID":"2024-172B","EPOCH":"2026-03-05T11:49:27.482016","MEAN_MOTION":14.722957,"ECCENTRICITY":0.0002557,"INCLINATION":98.0302,"RA_OF_ASC_NODE":155.5563,"ARG_OF_PERICENTER":114.0346,"MEAN_ANOMALY":246.1129,"EPHEMERIS_TYPE":0,"CLASSIFICATION_TYPE":"U","NORAD_CAT_ID":61221,"ELEMENT_SET_NO":999,"REV_AT_EPOCH":7809,"BSTAR":0.00054001,"MEAN_MOTION_DOT":3.364e-5,"MEAN_MOTION_DDOT":0},{"OBJECT_NAME":"KINEIS-3E","OBJECT_ID":"2024-172C","EPOCH":"2026-03-05T14:40:36.884928","MEAN_MOTION":14.72284858,"ECCENTRICITY":0.0001635,"INCLINATION":98.0295,"RA_OF_ASC_NODE":155.6689,"ARG_OF_PERICENTER":108.7309,"MEAN_ANOMALY":251.4075,"EPHEMERIS_TYPE":0,"CLASSIFICATION_TYPE":"U","NORAD_CAT_ID":61222,"ELEMENT_SET_NO":999,"REV_AT_EPOCH":7811,"BSTAR":0.00052695,"MEAN_MOTION_DOT":3.28e-5,"MEAN_MOTION_DDOT":0},{"OBJECT_NAME":"KINEIS-3A","OBJECT_ID":"2024-172D","EPOCH":"2026-03-05T15:54:00.128736","MEAN_MOTION":14.72312907,"ECCENTRICITY":0.0003093,"INCLINATION":98.0289,"RA_OF_ASC_NODE":155.808,"ARG_OF_PERICENTER":78.3064,"MEAN_ANOMALY":281.8491,"EPHEMERIS_TYPE":0,"CLASSIFICATION_TYPE":"U","NORAD_CAT_ID":61223,"ELEMENT_SET_NO":999,"REV_AT_EPOCH":7754,"BSTAR":0.00052105,"MEAN_MOTION_DOT":3.245e-5,"MEAN_MOTION_DDOT":0},{"OBJECT_NAME":"KINEIS-3B","OBJECT_ID":"2024-172E","EPOCH":"2026-03-05T17:07:23.185920","MEAN_MOTION":14.72267139,"ECCENTRICITY":0.0003582,"INCLINATION":98.0286,"RA_OF_ASC_NODE":155.8916,"ARG_OF_PERICENTER":70.5685,"MEAN_ANOMALY":289.5909,"EPHEMERIS_TYPE":0,"CLASSIFICATION_TYPE":"U","NORAD_CAT_ID":61224,"ELEMENT_SET_NO":999,"REV_AT_EPOCH":7812,"BSTAR":0.00052202,"MEAN_MOTION_DOT":3.248e-5,"MEAN_MOTION_DDOT":0},{"OBJECT_NAME":"KINEIS-5C","OBJECT_ID":"2024-219A","EPOCH":"2026-03-05T18:11:44.958336","MEAN_MOTION":14.7235438,"ECCENTRICITY":0.0001696,"INCLINATION":97.9723,"RA_OF_ASC_NODE":226.2906,"ARG_OF_PERICENTER":97.7601,"MEAN_ANOMALY":262.3799,"EPHEMERIS_TYPE":0,"CLASSIFICATION_TYPE":"U","NORAD_CAT_ID":62081,"ELEMENT_SET_NO":999,"REV_AT_EPOCH":6853,"BSTAR":0.00025186,"MEAN_MOTION_DOT":1.545e-5,"MEAN_MOTION_DDOT":0},{"OBJECT_NAME":"KINEIS-5D","OBJECT_ID":"2024-219B","EPOCH":"2026-03-05T17:22:47.940672","MEAN_MOTION":14.72333525,"ECCENTRICITY":0.0001116,"INCLINATION":97.9633,"RA_OF_ASC_NODE":226.2397,"ARG_OF_PERICENTER":85.2954,"MEAN_ANOMALY":274.8381,"EPHEMERIS_TYPE":0,"CLASSIFICATION_TYPE":"U","NORAD_CAT_ID":62082,"ELEMENT_SET_NO":999,"REV_AT_EPOCH":6853,"BSTAR":0.00046893,"MEAN_MOTION_DOT":2.918e-5,"MEAN_MOTION_DDOT":0}]
