METOP-B                 
1 38771U 12049A   26064.71430968  .00000168  00000+0  96564-4 0  9996
2 38771  98.6650 118.2136 0001198 287.7658  72.3389 14.21443239698565
SARAL                   
1 39086U 13009A   26064.76035855  .00000186  00000+0  84110-4 0  9998
2 39086  98.5552 252.6256 0001256 193.0304 167.0848 14.32827019680795
METOP-C                 
1 43689U 18087A   26064.73883693  .00000158  00000+0  92090-4 0  9996
2 43689  98.6773 126.1788 0002182 105.4010 254.7409 14.21495517380134
OTB-3-GAZELLE           
1 54023U 22127A   26064.57927635  .00000118  00000+0  48442-4 0  9995
2 54023  98.3905  57.8873 0013941 137.2889 222.9387 14.42633327179425
EOS-6 (OCEANSAT-3)      
1 54361U 22158A   26064.78490646  .00000543  00000+0  16140-3 0  9995
2 54361  98.3489 164.3871 0000136  48.1470 311.9734 14.47001627172882
KINEIS-1B               
1 60079U 24114A   26064.71518383  .00001780  00000+0  24000-3 0  9992
2 60079  97.9926  89.3649 0003835  81.1868 278.9778 14.80405400 92090
KINEIS-1C               
1 60081U 24114C   26064.74889105  .00001622  00000+0  21930-3 0  9995
2 60081  97.9948  89.2230 0002090 122.2820 237.8594 14.80396650 92073
KINEIS-1D               
1 60082U 24114D   26064.74218002  .00001151  00000+0  17420-3 0  9994
2 60082  97.9971  85.9771 0002290 130.3463 229.7946 14.76105548 91864
KINEIS-1E               
1 60083U 24114E   26064.76583745  .00001639  00000+0  22140-3 0  9992
2 60083  97.9932  89.3214 0002487  91.5752 268.5745 14.80414957 92084
KINEIS-1A               
1 60084U 24114F   26064.79965583  .00001376  00000+0  18694-3 0  9997
2 60084  97.9939  89.4775 0004792 101.2021 258.9730 14.80429343 92097
KINEIS-3C               
1 61220U 24172A   26064.70320735  .00003407  00000+0  54682-3 0  9993
2 61220  98.0300 155.7531 0003517 108.3787 251.7803 14.72293444 77842
KINEIS-3D               
1 61221U 24172B   26064.49267919  .00003364  00000+0  54001-3 0  9991
2 61221  98.0302 155.5563 0002557 114.0346 246.1129 14.72295700 78090
KINEIS-3E               
1 61222U 24172C   26064.61153802  .00003280  00000+0  52695-3 0  9995
2 61222  98.0295 155.6689 0001635 108.7309 251.4075 14.72284858 78111
KINEIS-3A               
1 61223U 24172D   26064.66250149  .00003245  00000+0  52105-3 0  9990
2 61223  98.0289 155.8080 0003093  78.3064 281.8491 14.72312907 77544
KINEIS-3B               
1 61224U 24172E   26064.71346280  .00003248  00000+0  52202-3 0  9990
2 61224  98.0286 155.8916 0003582  70.5685 289.5909 14.72267139 78126
KINEIS-5C               
1 62081U 24219A   26064.75815924  .00001545  00000+0  25186-3 0  9993
2 62081  97.9723 226.2906 0001696  97.7601 262.3799 14.72354380 68532
KINEIS-5D               
1 62082U 24219B   26064.72416598  .00002918  00000+0  46893-3 0  9998
2 62082  97.9633 226.2397 0001116  85.2954 274.8381 14.72333525 68530
